[{"OBJECT_NAME":"BRITE-PL2 (HEWELIUSZ)","OBJECT_ID":"2014-049B","EPOCH":"2026-04-05T06:11:29.153184","MEAN_MOTION":14.94328731,"ECCENTRICITY":0.0013772,"INCLINATION":97.9006,"RA_OF_ASC_NODE":206.7466,"ARG_OF_PERICENTER":358.1861,"MEAN_ANOMALY":1.9307,"EPHEMERIS_TYPE":0,"CLASSIFICATION_TYPE":"U","NORAD_CAT_ID":40119,"ELEMENT_SET_NO":999,"REV_AT_EPOCH":63055,"BSTAR":0.0003697,"MEAN_MOTION_DOT":3.922e-5,"MEAN_MOTION_DDOT":0},{"OBJECT_NAME":"CBERS 4","OBJECT_ID":"2014-079A","EPOCH":"2026-04-05T14:49:10.932096","MEAN_MOTION":14.35576966,"ECCENTRICITY":3.879e-5,"INCLINATION":98.3422,"RA_OF_ASC_NODE":154.7609,"ARG_OF_PERICENTER":133.4381,"MEAN_ANOMALY":226.6838,"EPHEMERIS_TYPE":0,"CLASSIFICATION_TYPE":"U","NORAD_CAT_ID":40336,"ELEMENT_SET_NO":999,"REV_AT_EPOCH":59354,"BSTAR":0.00019495686,"MEAN_MOTION_DOT":5.19e-6,"MEAN_MOTION_DDOT":0},{"OBJECT_NAME":"SMAP","OBJECT_ID":"2015-003A","EPOCH":"2026-04-05T14:26:20.316192","MEAN_MOTION":14.63375104,"ECCENTRICITY":0.00019266,"INCLINATION":98.1307,"RA_OF_ASC_NODE":103.7154,"ARG_OF_PERICENTER":93.724,"MEAN_ANOMALY":266.4183,"EPHEMERIS_TYPE":0,"CLASSIFICATION_TYPE":"U","NORAD_CAT_ID":40376,"ELEMENT_SET_NO":999,"REV_AT_EPOCH":59700,"BSTAR":0.00015141578,"MEAN_MOTION_DOT":7.36e-6,"MEAN_MOTION_DDOT":0},{"OBJECT_NAME":"GONETS-M 11","OBJECT_ID":"2015-020A","EPOCH":"2026-04-05T13:26:55.505760","MEAN_MOTION":12.42873616,"ECCENTRICITY":0.00163762,"INCLINATION":82.4819,"RA_OF_ASC_NODE":76.2416,"ARG_OF_PERICENTER":156.3264,"MEAN_ANOMALY":203.8573,"EPHEMERIS_TYPE":0,"CLASSIFICATION_TYPE":"U","NORAD_CAT_ID":40552,"ELEMENT_SET_NO":999,"REV_AT_EPOCH":49971,"BSTAR":-0.00065298656,"MEAN_MOTION_DOT":-8.0e-7,"MEAN_MOTION_DDOT":0},{"OBJECT_NAME":"GONETS-M 12","OBJECT_ID":"2015-020B","EPOCH":"2026-04-05T14:45:54.326304","MEAN_MOTION":12.42889161,"ECCENTRICITY":0.0015684,"INCLINATION":82.4851,"RA_OF_ASC_NODE":77.3125,"ARG_OF_PERICENTER":140.9402,"MEAN_ANOMALY":219.2813,"EPHEMERIS_TYPE":0,"CLASSIFICATION_TYPE":"U","NORAD_CAT_ID":40553,"ELEMENT_SET_NO":999,"REV_AT_EPOCH":49971,"BSTAR":0.00015019155,"MEAN_MOTION_DOT":3.1e-7,"MEAN_MOTION_DDOT":0},{"OBJECT_NAME":"GONETS-M 13","OBJECT_ID":"2015-020C","EPOCH":"2026-04-05T14:05:57.675840","MEAN_MOTION":12.42867896,"ECCENTRICITY":0.00145619,"INCLINATION":82.4815,"RA_OF_ASC_NODE":75.9656,"ARG_OF_PERICENTER":126.1872,"MEAN_ANOMALY":234.0557,"EPHEMERIS_TYPE":0,"CLASSIFICATION_TYPE":"U","NORAD_CAT_ID":40554,"ELEMENT_SET_NO":999,"REV_AT_EPOCH":49968,"BSTAR":0.00014554705,"MEAN_MOTION_DOT":3.0e-7,"MEAN_MOTION_DDOT":0},{"OBJECT_NAME":"DMC3-FM1","OBJECT_ID":"2015-032A","EPOCH":"2026-04-05T14:27:00.341856","MEAN_MOTION":14.85662211,"ECCENTRICITY":0.00042247,"INCLINATION":97.6564,"RA_OF_ASC_NODE":323.5846,"ARG_OF_PERICENTER":303.5854,"MEAN_ANOMALY":56.4958,"EPHEMERIS_TYPE":0,"CLASSIFICATION_TYPE":"U","NORAD_CAT_ID":40715,"ELEMENT_SET_NO":999,"REV_AT_EPOCH":57913,"BSTAR":0.00018835931,"MEAN_MOTION_DOT":1.581e-5,"MEAN_MOTION_DDOT":0},{"OBJECT_NAME":"DMC3-FM2","OBJECT_ID":"2015-032B","EPOCH":"2026-04-05T14:59:04.654752","MEAN_MOTION":14.85661658,"ECCENTRICITY":0.00048916,"INCLINATION":97.6619,"RA_OF_ASC_NODE":325.1299,"ARG_OF_PERICENTER":309.1011,"MEAN_ANOMALY":50.9769,"EPHEMERIS_TYPE":0,"CLASSIFICATION_TYPE":"U","NORAD_CAT_ID":40716,"ELEMENT_SET_NO":999,"REV_AT_EPOCH":57913,"BSTAR":7.5485804e-5,"MEAN_MOTION_DOT":6.03e-6,"MEAN_MOTION_DDOT":0},{"OBJECT_NAME":"DMC3-FM3","OBJECT_ID":"2015-032C","EPOCH":"2026-04-05T13:55:20.208864","MEAN_MOTION":14.8566121,"ECCENTRICITY":0.00041317,"INCLINATION":97.667,"RA_OF_ASC_NODE":326.7932,"ARG_OF_PERICENTER":309.743,"MEAN_ANOMALY":50.3421,"EPHEMERIS_TYPE":0,"CLASSIFICATION_TYPE":"U","NORAD_CAT_ID":40717,"ELEMENT_SET_NO":999,"REV_AT_EPOCH":57913,"BSTAR":0.00011959362,"MEAN_MOTION_DOT":9.85e-6,"MEAN_MOTION_DDOT":0},{"OBJECT_NAME":"CARBONITE 1 (CBNT-1)","OBJECT_ID":"2015-032D","EPOCH":"2026-04-05T14:31:41.797632","MEAN_MOTION":14.83357142,"ECCENTRICITY":0.0014767,"INCLINATION":97.6485,"RA_OF_ASC_NODE":276.7301,"ARG_OF_PERICENTER":167.378,"MEAN_ANOMALY":192.7807,"EPHEMERIS_TYPE":0,"CLASSIFICATION_TYPE":"U","NORAD_CAT_ID":40718,"ELEMENT_SET_NO":999,"REV_AT_EPOCH":57858,"BSTAR":0.00015829343,"MEAN_MOTION_DOT":1.249e-5,"MEAN_MOTION_DDOT":0},{"OBJECT_NAME":"DEORBITSAIL","OBJECT_ID":"2015-032E","EPOCH":"2026-04-05T12:58:04.496448","MEAN_MOTION":15.02867844,"ECCENTRICITY":0.00144304,"INCLINATION":97.5992,"RA_OF_ASC_NODE":313.7644,"ARG_OF_PERICENTER":119.5041,"MEAN_ANOMALY":240.7625,"EPHEMERIS_TYPE":0,"CLASSIFICATION_TYPE":"U","NORAD_CAT_ID":40719,"ELEMENT_SET_NO":999,"REV_AT_EPOCH":58033,"BSTAR":0.00080025458,"MEAN_MOTION_DOT":0.00010703,"MEAN_MOTION_DDOT":0},{"OBJECT_NAME":"2015-049G","OBJECT_ID":"2015-049G","EPOCH":"2026-04-05T14:36:46.105344","MEAN_MOTION":15.6128968,"ECCENTRICITY":0.00073429,"INCLINATION":97.4655,"RA_OF_ASC_NODE":135.5855,"ARG_OF_PERICENTER":120.6455,"MEAN_ANOMALY":239.5527,"EPHEMERIS_TYPE":0,"CLASSIFICATION_TYPE":"U","NORAD_CAT_ID":40905,"ELEMENT_SET_NO":999,"REV_AT_EPOCH":58510,"BSTAR":0.00050147513,"MEAN_MOTION_DOT":0.00042639,"MEAN_MOTION_DDOT":0},{"OBJECT_NAME":"LILACSAT-2","OBJECT_ID":"2015-049K","EPOCH":"2026-04-05T14:10:17.880672","MEAN_MOTION":15.49111008,"ECCENTRICITY":0.00085226,"INCLINATION":97.4751,"RA_OF_ASC_NODE":129.7619,"ARG_OF_PERICENTER":144.853,"MEAN_ANOMALY":215.3284,"EPHEMERIS_TYPE":0,"CLASSIFICATION_TYPE":"U","NORAD_CAT_ID":40908,"ELEMENT_SET_NO":999,"REV_AT_EPOCH":58450,"BSTAR":0.00040146138,"MEAN_MOTION_DOT":0.00021771,"MEAN_MOTION_DDOT":0},{"OBJECT_NAME":"COSMOS 2507 (RODNIK-S 13)","OBJECT_ID":"2015-050A","EPOCH":"2026-04-05T13:05:45.294432","MEAN_MOTION":12.42924065,"ECCENTRICITY":0.00107037,"INCLINATION":82.4884,"RA_OF_ASC_NODE":124.9035,"ARG_OF_PERICENTER":142.1284,"MEAN_ANOMALY":218.055,"EPHEMERIS_TYPE":0,"CLASSIFICATION_TYPE":"U","NORAD_CAT_ID":40920,"ELEMENT_SET_NO":999,"REV_AT_EPOCH":47783,"BSTAR":-0.00061987811,"MEAN_MOTION_DOT":-7.6e-7,"MEAN_MOTION_DDOT":0},{"OBJECT_NAME":"COSMOS 2508 (RODNIK-S 14)","OBJECT_ID":"2015-050B","EPOCH":"2026-04-05T13:55:47.202816","MEAN_MOTION":12.4291182,"ECCENTRICITY":0.00142719,"INCLINATION":82.4834,"RA_OF_ASC_NODE":123.4145,"ARG_OF_PERICENTER":176.4037,"MEAN_ANOMALY":183.7148,"EPHEMERIS_TYPE":0,"CLASSIFICATION_TYPE":"U","NORAD_CAT_ID":40921,"ELEMENT_SET_NO":999,"REV_AT_EPOCH":47782,"BSTAR":0.0001475087,"MEAN_MOTION_DOT":3.0e-7,"MEAN_MOTION_DDOT":0},{"OBJECT_NAME":"COSMOS 2509 (RODNIK-S 15)","OBJECT_ID":"2015-050C","EPOCH":"2026-04-05T14:22:29.457984","MEAN_MOTION":12.42881416,"ECCENTRICITY":0.00141972,"INCLINATION":82.4842,"RA_OF_ASC_NODE":123.4978,"ARG_OF_PERICENTER":193.9618,"MEAN_ANOMALY":166.1071,"EPHEMERIS_TYPE":0,"CLASSIFICATION_TYPE":"U","NORAD_CAT_ID":40922,"ELEMENT_SET_NO":999,"REV_AT_EPOCH":47786,"BSTAR":-0.00038315086,"MEAN_MOTION_DOT":-4.3e-7,"MEAN_MOTION_DDOT":0}]
