BRITE-PL2 (HEWELIUSZ)   
1 40119U 14049B   26095.25797631  .00003922  00000+0  36970-3 0  9998
2 40119  97.9006 206.7466 0013772 358.1861   1.9307 14.94328731630552
CBERS 4                 
1 40336U 14079A   26095.61748764  .00000519  00000+0  19496-3 0  9998
2 40336  98.3422 154.7609 0000387 133.4381 226.6838 14.35576966593542
SMAP                    
1 40376U 15003A   26095.60162403  .00000736  00000+0  15142-3 0  9994
2 40376  98.1307 103.7154 0001926  93.7240 266.4183 14.63375104597009
GONETS-M 11             
1 40552U 15020A   26095.56036465 -.00000080  00000+0 -65299-3 0  9994
2 40552  82.4819  76.2416 0016376 156.3264 203.8573 12.42873616499714
GONETS-M 12             
1 40553U 15020B   26095.61521211  .00000031  00000+0  15019-3 0  9998
2 40553  82.4851  77.3125 0015684 140.9402 219.2813 12.42889161499714
GONETS-M 13             
1 40554U 15020C   26095.58747310  .00000030  00000+0  14555-3 0  9998
2 40554  82.4815  75.9656 0014561 126.1872 234.0557 12.42867896499685
DMC3-FM1                
1 40715U 15032A   26095.60208729  .00001581  00000+0  18836-3 0  9997
2 40715  97.6564 323.5846 0004224 303.5854  56.4958 14.85662211579135
DMC3-FM2                
1 40716U 15032B   26095.62435943  .00000603  00000+0  75486-4 0  9999
2 40716  97.6619 325.1299 0004891 309.1011  50.9769 14.85661658579137
DMC3-FM3                
1 40717U 15032C   26095.58009501  .00000985  00000+0  11959-3 0  9999
2 40717  97.6670 326.7932 0004131 309.7430  50.3421 14.85661210579137
CARBONITE 1 (CBNT-1)    
1 40718U 15032D   26095.60534488  .00001249  00000+0  15829-3 0  9994
2 40718  97.6485 276.7301 0014767 167.3780 192.7807 14.83357142578589
DEORBITSAIL             
1 40719U 15032E   26095.54032982  .00010703  00000+0  80025-3 0  9995
2 40719  97.5992 313.7644 0014430 119.5041 240.7625 15.02867844580335
2015-049G               
1 40905U 15049G   26095.60886696  .00042639  00000+0  50148-3 0  9992
2 40905  97.4655 135.5855 0007342 120.6455 239.5527 15.61289680585105
LILACSAT-2              
1 40908U 15049K   26095.59048473  .00021771  00000+0  40146-3 0  9997
2 40908  97.4751 129.7619 0008522 144.8530 215.3284 15.49111008584500
COSMOS 2507 (RODNIK-S *)
1 40920U 15050A   26095.54566313 -.00000076  00000+0 -61988-3 0  9990
2 40920  82.4884 124.9035 0010703 142.1284 218.0550 12.42924065477833
COSMOS 2508 (RODNIK-S *)
1 40921U 15050B   26095.58040744  .00000030  00000+0  14751-3 0  9994
2 40921  82.4834 123.4145 0014271 176.4037 183.7148 12.42911820477820
COSMOS 2509 (RODNIK-S *)
1 40922U 15050C   26095.59895206 -.00000043  00000+0 -38315-3 0  9995
2 40922  82.4842 123.4978 0014197 193.9618 166.1071 12.42881416477861
